OBJECT_NAME,OBJECT_ID,EPOCH,MEAN_MOTION,ECCENTRICITY,INCLINATION,RA_OF_ASC_NODE,ARG_OF_PERICENTER,MEAN_ANOMALY,EPHEMERIS_TYPE,CLASSIFICATION_TYPE,NORAD_CAT_ID,ELEMENT_SET_NO,REV_AT_EPOCH,BSTAR,MEAN_MOTION_DOT,MEAN_MOTION_DDOT
STARLINK-30433,2023-144Q,2026-07-19T12:32:26.922912,15.27567927,.00011964,43.0014,260.3318,274.4513,85.6202,0,U,57878,999,15780,.17959177E-4,.232E-5,0
STARLINK-30358,2023-144R,2026-07-19T12:38:00.558240,15.27566432,.00012013,43.0010,260.3604,264.1832,95.8882,0,U,57879,999,15780,.6446527E-4,.1512E-4,0
STARLINK-30436,2023-144S,2026-07-19T12:47:14.116992,15.27573693,.00014,43.0014,260.4044,271.5921,88.4770,0,U,57880,999,15780,-.95203E-5,-.524E-5,0
STARLINK-30339,2023-144U,2026-07-19T04:30:45.274464,15.27576512,.00012742,43.0010,262.9723,249.5968,110.4747,0,U,57882,999,15774,.31013713E-4,.591E-5,0
STARLINK-30282,2023-144V,2026-07-19T12:28:44.137920,15.27576005,.00013629,43.0010,260.3134,268.0075,92.0621,0,U,57883,999,15780,.87364892E-4,.2142E-4,0
STARLINK-30340,2023-144W,2026-07-19T14:13:58.980000,15.27578890,.000129,43.0003,259.9893,274.5593,85.5112,0,U,57884,999,15781,.51863E-4,.1165E-4,0
STARLINK-30279,2023-144X,2026-07-19T12:34:16.936896,15.27569586,.00013326,43.0026,260.3374,272.3973,87.6726,0,U,57885,999,15774,.56114156E-4,.1282E-4,0
STARLINK-30465,2023-146A,2026-07-19T14:45:42.874848,15.27573775,.0001165,43.0013,289.0692,277.5840,82.4879,0,U,57891,999,15723,.13512E-4,.11E-5,0
STARLINK-30470,2023-146B,2026-07-19T15:59:31.426080,15.27570530,.000107,43.0012,288.5919,274.4306,85.6424,0,U,57892,999,15724,.10319E-4,.22E-6,0
STARLINK-30473,2023-146C,2026-07-19T07:22:40.508256,15.27574552,.00012809,43.0040,290.9947,274.6714,85.3991,0,U,57893,999,15718,.19445999E-4,.273E-5,0
STARLINK-30443,2023-146D,2026-07-19T13:13:24.212352,15.27586737,.0001351,43.0013,289.4437,266.8577,93.2120,0,U,57894,999,15722,-.11062E-3,-.3306E-4,0
STARLINK-30467,2023-146E,2026-07-19T14:30:55.103616,15.27570033,.0001187,43.0013,288.9909,270.4063,89.6653,0,U,57895,999,15722,.5119E-5,-.121E-5,0
STARLINK-30469,2023-146F,2026-07-19T13:18:57.857184,15.27579252,.0001619,43.0024,289.4726,280.9245,79.1425,0,U,57896,999,15722,.17242E-3,.4485E-4,0
STARLINK-30474,2023-146G,2026-07-19T07:06:01.963584,15.27577392,.00013437,43.0032,290.9703,273.0755,86.9943,0,U,57897,999,15718,.19130348E-4,.264E-5,0
STARLINK-30479,2023-146H,2026-07-19T07:11:35.750976,15.27576580,.00012684,43.0038,290.9951,228.2948,131.7796,0,U,57898,999,15718,.11394479E-3,.2874E-4,0
STARLINK-30481,2023-146J,2026-07-19T07:17:08.304576,15.27579407,.00018649,43.0036,291.0280,271.4646,88.5992,0,U,57899,999,15718,.8862542E-5,-.19E-6,0
STARLINK-30457,2023-146K,2026-07-19T13:59:42.266976,15.27550364,.0002075,43.0031,289.6752,254.6917,105.3705,0,U,57900,999,15616,-.11716E-3,-.3482E-4,0
STARLINK-30472,2023-146L,2026-07-19T14:39:01.048320,15.27577239,.0001186,43.0014,285.6169,279.1341,80.9376,0,U,57901,999,15621,.1651E-4,.192E-5,0
STARLINK-30462,2023-146M,2026-07-19T07:28:14.206656,15.27576185,.00013769,43.0038,291.0833,270.1768,89.8925,0,U,57902,999,15714,.5407705E-4,.1226E-4,0
STARLINK-30449,2023-146N,2026-07-19T14:38:20.379840,15.27566915,.0001344,43.0023,289.0189,280.4069,79.6631,0,U,57903,999,15617,-.39997E-4,-.1362E-4,0
STARLINK-30466,2023-146P,2026-07-19T07:33:46.910592,15.27586916,.00013267,43.0025,291.1124,245.9513,114.1200,0,U,57904,999,15612,-.63667911E-4,-.2014E-4,0
STARLINK-30428,2023-146R,2026-07-19T13:54:06.740352,15.27575576,.000169,43.0036,289.6486,264.2823,95.7836,0,U,57906,999,15616,.36652E-4,.746E-5,0
STARLINK-30482,2023-146S,2026-07-19T12:36:38.007360,15.27562729,.00017648,43.0033,290.1081,276.0122,84.0529,0,U,57907,999,15616,.1060049E-3,.2654E-4,0
STARLINK-30464,2023-146T,2026-07-19T14:06:21.548160,15.27572618,.0001752,43.0046,293.1088,271.2097,88.8554,0,U,57908,999,15612,.20135E-4,.292E-5,0
STARLINK-30463,2023-146U,2026-07-19T14:21:51.840288,15.27579773,.000142,43.0017,289.7894,267.9768,92.0921,0,U,57909,999,15616,.3979E-4,.833E-5,0
STARLINK-30453,2023-146V,2026-07-19T13:58:31.886400,15.27572616,.0001513,43.0018,286.2697,261.2482,98.8199,0,U,57910,999,15620,.80012E-5,-.42E-6,0
STARLINK-30478,2023-146W,2026-07-19T14:34:37.064352,15.27571330,.0001493,43.0030,288.9996,268.6397,91.4284,0,U,57911,999,15723,-.30168E-4,-.1092E-4,0
STARLINK-30477,2023-146X,2026-07-19T06:42:41.234688,15.27578848,.00014377,43.0026,287.4368,273.1024,86.9663,0,U,57912,999,15722,.10270645E-4,.2E-6,0
STARLINK-30450,2023-147A,2026-07-19T14:08:39.422688,15.27578416,.0001865,43.0045,300.0325,257.6647,102.3996,0,U,57913,999,15677,-.15921E-4,-.7E-5,0
STARLINK-30483,2023-147B,2026-07-19T20:45:53.389728,15.27582818,.0001377,43.0026,153.1705,268.4388,91.6306,0,U,57914,999,15852,.36249E-4,.736E-5,0
