STARLINK-30433          
1 57878U 23144Q   26200.52253383  .00000232  00000+0  17959-4 0  9991
2 57878  43.0014 260.3318 0001196 274.4513  85.6202 15.27567927157800
STARLINK-30358          
1 57879U 23144R   26200.52639535  .00001512  00000+0  64465-4 0  9995
2 57879  43.0010 260.3604 0001201 264.1832  95.8882 15.27566432157809
STARLINK-30436          
1 57880U 23144S   26200.53280228 -.00000524  00000+0 -95203-5 0  9998
2 57880  43.0014 260.4044 0001400 271.5921  88.4770 15.27573693157807
STARLINK-30339          
1 57882U 23144U   26200.18802401  .00000591  00000+0  31014-4 0  9995
2 57882  43.0010 262.9723 0001274 249.5968 110.4747 15.27576512157747
STARLINK-30282          
1 57883U 23144V   26200.51995530  .00002142  00000+0  87365-4 0  9993
2 57883  43.0010 260.3134 0001362 268.0075  92.0621 15.27576005157809
STARLINK-30340          
1 57884U 23144W   26200.59304375  .00001165  00000+0  51863-4 0  9991
2 57884  43.0003 259.9893 0001290 274.5593  85.5112 15.27578890157812
STARLINK-30279          
1 57885U 23144X   26200.52380714  .00001282  00000+0  56114-4 0  9990
2 57885  43.0026 260.3374 0001332 272.3973  87.6726 15.27569586157741
STARLINK-30465          
1 57891U 23146A   26200.61507957  .00000110  00000+0  13512-4 0  9993
2 57891  43.0013 289.0692 0001165 277.5840  82.4879 15.27573775157230
STARLINK-30470          
1 57892U 23146B   26200.66633595  .00000022  00000+0  10319-4 0  9991
2 57892  43.0012 288.5919 0001070 274.4306  85.6424 15.27570530157242
STARLINK-30473          
1 57893U 23146C   26200.30741329  .00000273  00000+0  19446-4 0  9996
2 57893  43.0040 290.9947 0001280 274.6714  85.3991 15.27574552157187
STARLINK-30443          
1 57894U 23146D   26200.55097468 -.00003306  00000+0 -11062-3 0  9999
2 57894  43.0013 289.4437 0001351 266.8577  93.2120 15.27586737157229
STARLINK-30467          
1 57895U 23146E   26200.60480444 -.00000121  00000+0  51190-5 0  9995
2 57895  43.0013 288.9909 0001187 270.4063  89.6653 15.27570033157228
STARLINK-30469          
1 57896U 23146F   26200.55483631  .00004485  00000+0  17242-3 0  9995
2 57896  43.0024 289.4726 0001619 280.9245  79.1425 15.27579252157225
STARLINK-30474          
1 57897U 23146G   26200.29585606  .00000264  00000+0  19130-4 0  9992
2 57897  43.0032 290.9703 0001343 273.0755  86.9943 15.27577392157189
STARLINK-30479          
1 57898U 23146H   26200.29971934  .00002874  00000+0  11394-3 0  9998
2 57898  43.0038 290.9951 0001268 228.2948 131.7796 15.27576580157186
STARLINK-30481          
1 57899U 23146J   26200.30356834 -.00000019  00000+0  88625-5 0  9990
2 57899  43.0036 291.0280 0001864 271.4646  88.5992 15.27579407157187
STARLINK-30457          
1 57900U 23146K   26200.58312809 -.00003482  00000+0 -11716-3 0  9990
2 57900  43.0031 289.6752 0002075 254.6917 105.3705 15.27550364156169
STARLINK-30472          
1 57901U 23146L   26200.61042880  .00000192  00000+0  16510-4 0  9995
2 57901  43.0014 285.6169 0001186 279.1341  80.9376 15.27577239156212
STARLINK-30462          
1 57902U 23146M   26200.31127554  .00001226  00000+0  54077-4 0  9994
2 57902  43.0038 291.0833 0001376 270.1768  89.8925 15.27576185157143
STARLINK-30449          
1 57903U 23146N   26200.60995810 -.00001362  00000+0 -39997-4 0  9992
2 57903  43.0023 289.0189 0001344 280.4069  79.6631 15.27566915156175
STARLINK-30466          
1 57904U 23146P   26200.31512628 -.00002014  00000+0 -63668-4 0  9990
2 57904  43.0025 291.1124 0001326 245.9513 114.1200 15.27586916156126
STARLINK-30428          
1 57906U 23146R   26200.57924468  .00000746  00000+0  36652-4 0  9990
2 57906  43.0036 289.6486 0001690 264.2823  95.7836 15.27575576156168
STARLINK-30482          
1 57907U 23146S   26200.52543990  .00002654  00000+0  10600-3 0  9997
2 57907  43.0033 290.1081 0001764 276.0122  84.0529 15.27562729156165
STARLINK-30464          
1 57908U 23146T   26200.58774940  .00000292  00000+0  20135-4 0  9996
2 57908  43.0046 293.1088 0001752 271.2097  88.8554 15.27572618156129
STARLINK-30463          
1 57909U 23146U   26200.59851667  .00000833  00000+0  39790-4 0  9998
2 57909  43.0017 289.7894 0001420 267.9768  92.0921 15.27579773156161
STARLINK-30453          
1 57910U 23146V   26200.58231350 -.00000042  00000+0  80012-5 0  9997
2 57910  43.0018 286.2697 0001513 261.2482  98.8199 15.27572616156205
STARLINK-30478          
1 57911U 23146W   26200.60737343 -.00001092  00000+0 -30168-4 0  9997
2 57911  43.0030 288.9996 0001493 268.6397  91.4284 15.27571330157234
STARLINK-30477          
1 57912U 23146X   26200.27964392  .00000020  00000+0  10271-4 0  9998
2 57912  43.0026 287.4368 0001437 273.1024  86.9663 15.27578848157223
STARLINK-30450          
1 57913U 23147A   26200.58934517 -.00000700  00000+0 -15921-4 0  9994
2 57913  43.0045 300.0325 0001865 257.6647 102.3996 15.27578416156775
STARLINK-30483          
1 57914U 23147B   26200.86520127  .00000736  00000+0  36249-4 0  9997
2 57914  43.0026 153.1705 0001377 268.4388  91.6306 15.27582818158525
